{"epoch":1784710044,"count":18256,"objects":[{"id":"55827","name":"ONEWEB-0667","type":"PAYLOAD","l1":"1 55827U 23029AH  26202.19393876  .00000055  00000-0  10369-3 0  9993","l2":"2 55827  87.9194 267.6575 0001911 104.8323 255.3023 13.20770307165639"},{"id":"55828","name":"ONEWEB-0669","type":"PAYLOAD","l1":"1 55828U 23029AJ  26202.18889444  .00000043  00000-0  74509-4 0  9998","l2":"2 55828  87.9179 267.6654 0001534  89.4376 270.6933 13.20769877165638"},{"id":"55829","name":"ONEWEB-0670","type":"PAYLOAD","l1":"1 55829U 23029AK  26202.46530520  .00000031  00000-0  48939-4 0  9993","l2":"2 55829  87.8953 282.9082 0001752 109.1621 250.9699 13.14502074163936"},{"id":"55830","name":"ONEWEB-0671","type":"PAYLOAD","l1":"1 55830U 23029AL  26202.56014242  .00000004  00000-0 -21833-4 0  9999","l2":"2 55830  87.9184 298.1312 0001982 103.6535 256.4819 13.19724638163435"},{"id":"55831","name":"ONEWEB-0672","type":"PAYLOAD","l1":"1 55831U 23029AM  26202.41112170 -.00000039  00000-0 -12858-3 0  9998","l2":"2 55831  87.9178 267.6150 0001975  90.6133 269.5226 13.20771636165667"},{"id":"55832","name":"ONEWEB-0673","type":"PAYLOAD","l1":"1 55832U 23029AN  26202.53723913  .00000064  00000-0  12717-3 0  9995","l2":"2 55832  87.9189 298.1298 0001973 104.1145 256.0207 13.19725615163431"},{"id":"55833","name":"ONEWEB-0674","type":"PAYLOAD","l1":"1 55833U 23029AP  26202.28134696  .00000215  00000-0  54430-3 0  9998","l2":"2 55833  87.8957 282.9221 0001666 106.9742 253.1570 13.14501808163895"},{"id":"55834","name":"ONEWEB-0675","type":"PAYLOAD","l1":"1 55834U 23029AQ  26202.55225428  .00000056  00000-0  10677-3 0  9991","l2":"2 55834  87.9184 298.1346 0002202  95.1219 265.0166 13.19725345163455"},{"id":"55835","name":"ONEWEB-0720","type":"PAYLOAD","l1":"1 55835U 23029AR  26202.54434660  .00000125  00000-0  27940-3 0  9999","l2":"2 55835  87.9182 298.1358 0002241 106.5587 253.5792 13.19726630163371"},{"id":"56046","name":"ONEWEB-0537","type":"PAYLOAD","l1":"1 56046U 23043A   26202.08924834 -.00000033  00000-0 -12028-3 0  9997","l2":"2 56046  87.9078 222.0370 0002133  87.4333 272.7042 13.16593924163428"},{"id":"56047","name":"ONEWEB-0538","type":"PAYLOAD","l1":"1 56047U 23043B   26202.08291182 -.00000047  00000-0 -15728-3 0  9996","l2":"2 56047  87.9081 222.0412 0002342  91.5764 268.5635 13.16594349163430"},{"id":"56048","name":"ONEWEB-0546","type":"PAYLOAD","l1":"1 56048U 23043C   26202.29823797 -.00000066  00000-0 -20625-3 0  9996","l2":"2 56048  87.9084 221.9987 0002147  73.6123 286.5244 13.16593760163456"},{"id":"56049","name":"ONEWEB-0547","type":"PAYLOAD","l1":"1 56049U 23043D   26202.53859086  .00000010  00000-0 -76651-5 0  9994","l2":"2 56049  87.9233 237.1381 0002217  97.5088 262.6298 13.21824221162765"},{"id":"56050","name":"ONEWEB-0548","type":"PAYLOAD","l1":"1 56050U 23043E   26202.09477269  .00000005  00000-0 -19860-4 0  9998","l2":"2 56050  87.9076 222.0342 0001605  95.5477 264.5837 13.16595149163424"},{"id":"56051","name":"ONEWEB-0549","type":"PAYLOAD","l1":"1 56051U 23043F   26202.60840246  .00000005  00000-0 -18486-4 0  9998","l2":"2 56051  87.9228 237.1288 0002465  93.9085 266.2331 13.21824035162772"},{"id":"56052","name":"ONEWEB-0550","type":"PAYLOAD","l1":"1 56052U 23043G   26202.51925389  .00000064  00000-0  12452-3 0  9991","l2":"2 56052  87.9230 237.1451 0001872  99.0960 261.0385 13.21827262162764"},{"id":"56053","name":"ONEWEB-0551","type":"PAYLOAD","l1":"1 56053U 23043H   26202.15286873  .00000048  00000-0  94211-4 0  9996","l2":"2 56053  87.8982 252.4582 0002364  98.6686 261.4713 13.15547864160868"},{"id":"56054","name":"ONEWEB-0552","type":"PAYLOAD","l1":"1 56054U 23043J   26202.13571675  .00000042  00000-0  69034-4 0  9991","l2":"2 56054  87.9228 237.2261 0002133 100.9647 259.1727 13.21826400162714"},{"id":"56055","name":"ONEWEB-0553","type":"PAYLOAD","l1":"1 56055U 23043K   26202.07657851 -.00000038  00000-0 -13399-3 0  9995","l2":"2 56055  87.9081 222.0421 0001949  82.0236 278.1116 13.16594522163434"},{"id":"56056","name":"ONEWEB-0554","type":"PAYLOAD","l1":"1 56056U 23043L   26202.51989667  .00000015  00000-0  61085-5 0  9998","l2":"2 56056  87.9077 221.9626 0001570  98.2562 261.8747 13.16594349163476"},{"id":"56057","name":"ONEWEB-0555","type":"PAYLOAD","l1":"1 56057U 23043M   26202.48189173  .00000002  00000-0 -27747-4 0  9992","l2":"2 56057  87.9076 221.9594 0002000  76.0407 284.0946 13.16594021163476"},{"id":"56058","name":"ONEWEB-0557","type":"PAYLOAD","l1":"1 56058U 23043N   26202.49614158  .00000037  00000-0  63117-4 0  9998","l2":"2 56058  87.9075 221.9663 0000947  63.9718 296.1510 13.16594392163473"},{"id":"56059","name":"ONEWEB-0558","type":"PAYLOAD","l1":"1 56059U 23043P   26202.12899714  .00000009  00000-0 -99529-5 0  9999","l2":"2 56059  87.9229 237.2231 0002394  92.6953 267.4455 13.21825754162725"},{"id":"56060","name":"ONEWEB-0559","type":"PAYLOAD","l1":"1 56060U 23043Q   26202.11722896  .00000084  00000-0  17073-3 0  9990","l2":"2 56060  87.9232 237.2213 0002284  98.4117 261.7276 13.21824791162734"},{"id":"56061","name":"ONEWEB-0566","type":"PAYLOAD","l1":"1 56061U 23043R   26202.11050184  .00000006  00000-0 -16913-4 0  9993","l2":"2 56061  87.9231 237.2201 0002343  98.9779 261.1620 13.21824341162712"},{"id":"56062","name":"ONEWEB-0568","type":"PAYLOAD","l1":"1 56062U 23043S   26202.05756783  .00000054  00000-0  10862-3 0  9993","l2":"2 56062  87.9078 222.0427 0002047  85.1051 275.0314 13.16596197163439"},{"id":"56063","name":"ONEWEB-0574","type":"PAYLOAD","l1":"1 56063U 23043T   26202.17947508 -.00000094  00000-0 -26029-3 0  9992","l2":"2 56063  87.9236 237.2116 0001854  93.9221 266.2125 13.21825590162765"},{"id":"56064","name":"ONEWEB-0575","type":"PAYLOAD","l1":"1 56064U 23043U   26202.50721288  .00000104  00000-0  23971-3 0  9998","l2":"2 56064  87.9076 221.9497 0001649  86.4488 273.6832 13.16595661163488"},{"id":"56065","name":"ONEWEB-0576","type":"PAYLOAD","l1":"1 56065U 23043V   26202.48820722  .00000001  00000-0 -30551-4 0  9999","l2":"2 56065  87.9078 221.9624 0001814  89.9784 270.1555 13.16595861163479"},{"id":"56066","name":"ONEWEB-0577","type":"PAYLOAD","l1":"1 56066U 23043W   26202.11456420  .00000121  00000-0  28322-3 0  9994","l2":"2 56066  87.9078 222.0341 0001273  91.4390 268.6887 13.16595699163455"}]}